NORAD_CAT_ID,OBJECT_NAME,OBJECT_TYPE,EPOCH,MEAN_MOTION,ECCENTRICITY,INCLINATION,RA_OF_ASC_NODE,ARG_OF_PERICENTER,MEAN_ANOMALY,BSTAR,MEAN_MOTION_DOT,MEAN_MOTION_DDOT,TLE_LINE0,TLE_LINE1,TLE_LINE2,SEMIMAJOR_AXIS,PERIOD,APOGEE,PERIGEE,DECAYED
51778.0,STARLINK-3615,PAYLOAD,2023-09-20 14:27:11,15.08833847,9.18e-05,53.2158,54.1335,95.682,264.4277,-0.00011253,-2.078e-05,0.0,0 STARLINK-3615,1 51778U 22017L   23263.60221776 -.00002078  00000-0 -11253-3 0  9991,2 51778  53.2158  54.1335 0000918  95.6820 264.4277 15.08833847 86523,6917.899,95.438,540.399,539.129,0.0
51778.0,STARLINK-3615,PAYLOAD,2023-09-20 17:37:58,15.08831653,8.66e-05,53.2169,53.5386,78.36,281.7489,-1.5732e-05,-5.38e-06,0.0,0 STARLINK-3615,1 51778U 22017L   23263.73470111 -.00000538  00000-0 -15732-4 0  9990,2 51778  53.2169  53.5386 0000866  78.3600 281.7489 15.08831653 88195,6917.906,95.438,540.37,539.172,0.0
51778.0,STARLINK-3615,PAYLOAD,2023-09-20 19:13:21,15.08831258,8.88e-05,53.2169,53.2411,76.5369,283.5722,-2.4464e-05,-6.77e-06,0.0,0 STARLINK-3615,1 51778U 22017L   23263.80094141 -.00000677  00000-0 -24464-4 0  9999,2 51778  53.2169  53.2411 0000888  76.5369 283.5722 15.08831258 86556,6917.907,95.438,540.386,539.158,0.0
51778.0,STARLINK-3615,PAYLOAD,2023-09-21 09:31:49,15.08838409,0.0001044,53.2176,50.5634,67.2202,292.8901,7.7812e-05,9.51e-06,0.0,0 STARLINK-3615,1 51778U 22017L   23264.39710158  .00000951  00000-0  77812-4 0  9995,2 51778  53.2176  50.5634 0001044  67.2202 292.8901 15.08838409 86646,6917.885,95.438,540.472,539.028,0.0
51778.0,STARLINK-3615,PAYLOAD,2023-09-21 15:53:21,15.08847826,0.0001059,53.2173,49.3738,67.9898,292.1207,0.00030806,4.619e-05,0.0,0 STARLINK-3615,1 51778U 22017L   23264.66205835  .00004619  00000-0  30806-3 0  9992,2 51778  53.2173  49.3738 0001059  67.9898 292.1207 15.08847826 88331,6917.856,95.437,540.454,538.989,0.0
51778.0,STARLINK-3615,PAYLOAD,2023-09-22 14:08:45,15.08849416,9.87e-05,53.2172,45.2107,69.0178,291.0919,0.00031863,4.788e-05,0.0,0 STARLINK-3615,1 51778U 22017L   23265.58941702  .00004788  00000-0  31863-3 0  9995,2 51778  53.2172  45.2107 0000987  69.0178 291.0919 15.08849416 86825,6917.852,95.437,540.399,539.034,0.0
51778.0,STARLINK-3615,PAYLOAD,2023-09-22 15:44:08,15.08850991,0.0001054,53.2174,44.9132,64.6041,295.506,0.00035782,5.413e-05,0.0,0 STARLINK-3615,1 51778U 22017L   23265.65565669  .00005413  00000-0  35782-3 0  9997,2 51778  53.2174  44.9132 0001054  64.6041 295.5060 15.08850991 88487,6917.847,95.437,540.441,538.983,0.0
51778.0,STARLINK-3615,PAYLOAD,2023-09-23 12:24:09,15.08844451,0.0001105,53.218,41.0464,102.3057,257.8059,0.00013187,1.812e-05,0.0,0 STARLINK-3615,1 51778U 22017L   23266.51677491  .00001812  00000-0  13187-3 0  9994,2 51778  53.2180  41.0464 0001105 102.3057 257.8059 15.08844451 88612,6917.867,95.437,540.496,538.967,0.0
51778.0,STARLINK-3615,PAYLOAD,2023-09-24 09:04:10,15.08837873,0.0001018,53.2186,37.1837,77.7526,282.358,0.00010876,1.443e-05,0.0,0 STARLINK-3615,1 51778U 22017L   23267.37790025  .00001443  00000-0  10876-3 0  9990,2 51778  53.2186  37.1837 0001018  77.7526 282.3580 15.08837873 88743,6917.887,95.438,540.456,539.048,0.0
51778.0,STARLINK-3615,PAYLOAD,2023-09-24 13:50:19,15.08843881,0.0001293,53.2178,36.2916,61.7943,298.3179,4.3634e-05,4.07e-06,0.0,0 STARLINK-3615,1 51778U 22017L   23267.57661861  .00000407  00000-0  43634-4 0  9995,2 51778  53.2178  36.2916 0001293  61.7943 298.3179 15.08843881 87121,6917.869,95.437,540.628,538.839,0.0
51778.0,STARLINK-3615,PAYLOAD,2023-09-25 13:41:06,15.08851078,0.0001464,53.2181,31.832,53.0175,307.0951,0.00036469,5.523e-05,0.0,0 STARLINK-3615,1 51778U 22017L   23268.57021802  .00005523  00000-0  36469-3 0  9992,2 51778  53.2181  31.8320 0001464  53.0175 307.0951 15.08851078 87275,6917.847,95.437,540.724,538.699,0.0
51778.0,STARLINK-3615,PAYLOAD,2023-09-25 15:16:29,15.08860413,0.0001185,53.2176,31.5325,79.4161,280.6964,0.00051766,7.965e-05,0.0,0 STARLINK-3615,1 51778U 22017L   23268.63645436  .00007965  00000-0  51766-3 0  9993,2 51778  53.2176  31.5325 0001185  79.4161 280.6964 15.08860413 88935,6917.818,95.436,540.503,538.863,0.0
51778.0,STARLINK-3615,PAYLOAD,2023-09-26 11:56:31,15.08834673,0.0001141,53.2182,27.667,90.6113,269.501,6.6708e-06,-1.82e-06,0.0,0 STARLINK-3615,1 51778U 22017L   23269.49758494 -.00000182  00000-0  66708-5 0  9996,2 51778  53.2182  27.6670 0001141  90.6113 269.5010 15.08834673 89067,6917.897,95.438,540.551,538.972,0.0
51778.0,STARLINK-3615,PAYLOAD,2023-09-26 13:31:54,15.088347,0.0001141,53.2181,27.3701,92.6409,267.4714,2.5735e-05,1.22e-06,0.0,0 STARLINK-3615,1 51778U 22017L   23269.56382472  .00000122  00000-0  25735-4 0  9990,2 51778  53.2181  27.3701 0001141  92.6409 267.4714 15.08834700 87425,6917.897,95.438,540.551,538.972,0.0
51778.0,STARLINK-3615,PAYLOAD,2023-09-26 18:18:03,15.08840776,0.0001185,53.218,26.4773,97.7002,262.4125,0.00025925,3.841e-05,0.0,0 STARLINK-3615,1 51778U 22017L   23269.76254435  .00003841  00000-0  25925-3 0  9990,2 51778  53.2180  26.4773 0001185  97.7002 262.4125 15.08840776 87450,6917.878,95.438,540.563,538.923,0.0
51778.0,STARLINK-3615,PAYLOAD,2023-09-27 13:22:40,15.08814326,0.0001555,53.2189,22.9103,111.475,248.6408,-0.00084317,-0.00013672,0.0,0 STARLINK-3615,1 51778U 22017L   23270.55741372 -.00013672  00000-0 -84317-3 0  9995,2 51778  53.2189  22.9103 0001555 111.4750 248.6408 15.08814326 87577,6917.959,95.439,540.9,538.748,0.0
51778.0,STARLINK-3615,PAYLOAD,2023-09-27 14:58:03,15.08819468,0.0001341,53.218,22.611,87.0243,273.0903,-0.00055469,-9.1e-05,0.0,0 STARLINK-3615,1 51778U 22017L   23270.62365635 -.00009100  00000-0 -55469-3 0  9994,2 51778  53.2180  22.6110 0001341  87.0243 273.0903 15.08819468 89230,6917.943,95.439,540.736,538.88,0.0
51778.0,STARLINK-3615,PAYLOAD,2023-09-28 13:13:28,15.08838402,0.0001428,53.2181,18.4485,86.337,273.7785,0.0012481,0.0001963,0.0,0 STARLINK-3615,1 51778U 22017L   23271.55102424  .00019630  00000-0  12481-2 0  9995,2 51778  53.2181  18.4485 0001428  86.3370 273.7785 15.08838402 89377,6917.885,95.438,540.738,538.762,0.0
51778.0,STARLINK-3615,PAYLOAD,2023-09-28 14:48:51,15.08847175,0.0001455,53.2181,18.1515,83.8125,276.3033,0.0015394,0.00024301,0.0,0 STARLINK-3615,1 51778U 22017L   23271.61726379  .00024301  00000-0  15394-2 0  9990,2 51778  53.2181  18.1515 0001455  83.8125 276.3033 15.08847175 87738,6917.858,95.437,540.73,538.717,0.0
51778.0,STARLINK-3615,PAYLOAD,2023-09-28 16:24:14,15.08852808,0.0001464,53.218,17.8549,82.1458,277.97,0.0016548,0.00026156,0.0,0 STARLINK-3615,1 51778U 22017L   23271.68350316  .00026156  00000-0  16548-2 0  9993,2 51778  53.2180  17.8549 0001464  82.1458 277.9700 15.08852808 87749,6917.841,95.437,540.719,538.693,0.0
51778.0,STARLINK-3615,PAYLOAD,2023-09-29 13:04:16,15.088499,0.0001564,53.2179,13.9886,84.9466,275.1705,0.0015882,0.00025085,0.0,0 STARLINK-3615,1 51778U 22017L   23272.54462966  .00025085  00000-0  15882-2 0  9994,2 51778  53.2179  13.9886 0001564  84.9466 275.1705 15.08849900 89520,6917.85,95.437,540.797,538.633,0.0
51778.0,STARLINK-3615,PAYLOAD,2023-09-30 12:55:02,15.08858695,0.0001467,53.2173,9.5296,81.9425,278.1734,0.00087337,0.00013646,0.0,0 STARLINK-3615,1 51778U 22017L   23273.53822519  .00013646  00000-0  87337-3 0  9993,2 51778  53.2173   9.5296 0001467  81.9425 278.1734 15.08858695 89676,6917.823,95.436,540.703,538.673,0.0
51778.0,STARLINK-3615,PAYLOAD,2023-10-01 12:45:49,15.0886067,0.000149,53.2177,5.069,81.7093,278.4068,0.00057716,8.915e-05,0.0,0 STARLINK-3615,1 51778U 22017L   23274.53181822  .00008915  00000-0  57716-3 0  9990,2 51778  53.2177   5.0690 0001490  81.7093 278.4068 15.08860670 89820,6917.817,95.436,540.713,538.651,0.0
51778.0,STARLINK-3615,PAYLOAD,2023-10-01 15:56:35,15.08865034,0.0001511,53.2178,4.4728,87.847,272.2696,0.00078807,0.00012285,0.0,0 STARLINK-3615,1 51778U 22017L   23274.66429603  .00012285  00000-0  78807-3 0  9995,2 51778  53.2178   4.4728 0001511  87.8470 272.2696 15.08865034 88193,6917.804,95.436,540.714,538.624,0.0
51778.0,STARLINK-3615,PAYLOAD,2023-10-02 11:01:13,15.08824542,0.0001609,53.2188,0.9042,104.7699,255.3471,0.00025632,3.792e-05,0.0,0 STARLINK-3615,1 51778U 22017L   23275.45918780  .00003792  00000-0  25632-3 0  9993,2 51778  53.2188   0.9042 0001609 104.7699 255.3471 15.08824542 89962,6917.928,95.439,540.906,538.68,0.0
51778.0,STARLINK-3615,PAYLOAD,2023-10-03 12:27:24,15.08855211,0.0001209,53.2178,356.1486,86.0785,274.0345,0.0011885,0.00018685,0.0,0 STARLINK-3615,1 51778U 22017L   23276.51903135  .00018685  00000-0  11885-2 0  9990,2 51778  53.2178 356.1486 0001209  86.0785 274.0345 15.08855211 90128,6917.834,95.437,540.535,538.863,0.0
51778.0,STARLINK-3615,PAYLOAD,2023-10-04 04:21:15,15.08850621,6.55e-05,53.2179,353.1753,63.1615,296.9444,0.00062234,9.633e-05,0.0,0 STARLINK-3615,1 51778U 22017L   23277.18143114  .00009633  00000-0  62234-3 0  9995,2 51778  53.2179 353.1753 0000655  63.1615 296.9444 15.08850621 90229,6917.848,95.437,540.166,539.26,0.0
51778.0,STARLINK-3615,PAYLOAD,2023-10-04 12:18:10,15.08865535,0.000139,53.2182,351.688,99.0419,261.0731,0.0010048,0.00015751,0.0,0 STARLINK-3615,1 51778U 22017L   23277.51262618  .00015751  00000-0  10048-2 0  9996,2 51778  53.2182 351.6880 0001390  99.0419 261.0731 15.08865535 88627,6917.802,95.436,540.629,538.706,0.0
51778.0,STARLINK-3615,PAYLOAD,2023-10-05 04:12:02,15.08847584,0.0001768,53.2179,348.7153,83.6323,276.4871,7.4468e-05,8.97e-06,0.0,0 STARLINK-3615,1 51778U 22017L   23278.17502735  .00000897  00000-0  74468-4 0  9999,2 51778  53.2179 348.7153 0001768  83.6323 276.4871 15.08847584 90379,6917.857,95.437,540.945,538.499,0.0
51778.0,STARLINK-3615,PAYLOAD,2023-10-05 13:44:21,15.08851755,0.0001553,53.2176,346.9309,77.7571,282.3595,0.0023036,0.00036576,0.0,0 STARLINK-3615,1 51778U 22017L   23278.57246918  .00036576  00000-0  23036-2 0  9997,2 51778  53.2176 346.9309 0001553  77.7571 282.3595 15.08851755 88786,6917.844,95.437,540.784,538.635,0.0
